{
  "norad_id": 55477,
  "name": "STARLINK-5685",
  "history": [
    {
      "epoch": "2026-03-27T16:45:55.728288",
      "apogee_km": 529.6148674378974,
      "perigee_km": 528.9365595094341,
      "latitude_deg": -17.160565330314736,
      "longitude_deg": 58.761920319870114,
      "semi_major_axis_km": 6907.4127134736655,
      "eccentricity": 4.91e-05,
      "inclination_deg": 43.0011,
      "raan_deg": 215.0776,
      "arg_perigee_deg": 353.5726,
      "mean_anomaly_deg": 6.5114,
      "mean_motion_rev_day": 15.12271103
    },
    {
      "epoch": "2026-03-28T16:33:55.851264",
      "apogee_km": 534.4132789437499,
      "perigee_km": 532.1573906936646,
      "latitude_deg": 10.71270215672756,
      "longitude_deg": 153.96205695997924,
      "semi_major_axis_km": 6911.422334818707,
      "eccentricity": 0.0001632,
      "inclination_deg": 43.0009,
      "raan_deg": 209.6233,
      "arg_perigee_deg": 276.8185,
      "mean_anomaly_deg": 83.2475,
      "mean_motion_rev_day": 15.10955291
    }
  ]
}